ONEWEB-0207             
1 48242U 21031AJ  24342.90942974  .00000081  00000+0  18306-3 0  9995
2 48242  87.9014  40.3066 0001951 105.3483 254.7862 13.14504585175216
ONEWEB-0208             
1 48243U 21031AK  24342.89119125 -.00000163  00000+0 -47462-3 0  9996
2 48243  87.9013  40.3245 0001632 103.5643 256.5668 13.14504424175226
ONEWEB-0200             
1 48244U 21031AL  24342.70248917  .00000167  00000+0  41571-3 0  9996
2 48244  87.9015  40.3572 0001586 103.8715 256.2591 13.14502073175122
ONEWEB-0217             
1 48245U 21031AM  24342.87057858  .00000064  00000+0  13793-3 0  9998
2 48245  87.9014  40.3082 0001477 104.4462 255.6831 13.14503789175094
ONEWEB-0211             
1 48767U 21045A   24342.88776733 -.00000057  00000+0 -18484-3 0  9999
2 48767  87.9072   9.9252 0001629  90.5783 269.5534 13.15549259171270
ONEWEB-0223             
1 48768U 21045B   24342.90997339  .00000162  00000+0  39506-3 0  9993
2 48768  87.9075   9.9338 0001419  79.2673 280.8617 13.15548293171262
ONEWEB-0230             
1 48769U 21045C   24342.88144849 -.00000068  00000+0 -21507-3 0  9990
2 48769  87.9075  10.0076 0001880  89.3917 270.7429 13.15548530171522
ONEWEB-0237             
1 48770U 21045D   24343.09853214  .00000037  00000+0  63638-4 0  9995
2 48770  87.9079   9.9066 0001560  81.7979 278.3328 13.15549439172402
